start=new Date('2022-01-03T00:00:00.000Z').valueOf();
sats=[{"NORAD_CAT_ID":"49428","REF_FRAME":"TEME","EPHEMERIS_TYPE":"0","TIME_SYSTEM":"UTC","PERIOD":"93.258","SEMIMAJOR_AXIS":"6812.174","RA_OF_ASC_NODE":"246.0185","OBJECT_ID":"2021-104W","EPOCH":"2022-01-02T22:00:00.999936","DECAY_DATE":null,"MEAN_MOTION_DOT":"-0.00653804","BSTAR":"-0.01530100000000","ECCENTRICITY":"0.00013600","ELEMENT_SET_NO":"999","PERIAPSIS":"433.113","OBJECT_TYPE":"PAYLOAD","RCS_SIZE":"LARGE","CENTER_NAME":"EARTH","GP_ID":"192945852","FILE":"3255249","OBJECT_NAME":"STARLINK-3121","MEAN_ANOMALY":"265.9094","MEAN_ELEMENT_THEORY":"SGP4","LAUNCH_DATE":"2021-11-13","SITE":"AFETR","TLE_LINE1":"1 49428U 21104W   22002.91667824 -.00653804  00000-0 -15301-1 0  9993","COUNTRY_CODE":"US","CLASSIFICATION_TYPE":"U","MEAN_MOTION_DDOT":"0.0000000000000","REV_AT_EPOCH":"367","ARG_OF_PERICENTER":"57.3721","MEAN_MOTION":"15.44095367","INCLINATION":"53.2176","APOAPSIS":"434.966","TLE_LINE2":"2 49428  53.2176 246.0185 0001360  57.3721 265.9094 15.44095367  3679"},{"OBJECT_TYPE":"PAYLOAD","PERIAPSIS":"433.715","ELEMENT_SET_NO":"999","MEAN_MOTION_DOT":"-0.00653036","ECCENTRICITY":"0.00013120","BSTAR":"-0.01538300000000","DECAY_DATE":null,"EPOCH":"2022-01-02T22:00:00.999936","OBJECT_ID":"2021-104Y","TIME_SYSTEM":"UTC","PERIOD":"93.270","RA_OF_ASC_NODE":"246.0223","SEMIMAJOR_AXIS":"6812.744","EPHEMERIS_TYPE":"0","NORAD_CAT_ID":"49430","REF_FRAME":"TEME","TLE_LINE2":"2 49430  53.2175 246.0223 0001312  63.6468 242.3078 15.43901658  3678","APOAPSIS":"435.503","MEAN_MOTION":"15.43901658","INCLINATION":"53.2175","REV_AT_EPOCH":"367","ARG_OF_PERICENTER":"63.6468","MEAN_MOTION_DDOT":"0.0000000000000","CLASSIFICATION_TYPE":"U","COUNTRY_CODE":"US","TLE_LINE1":"1 49430U 21104Y   22002.91667824 -.00653036  00000-0 -15383-1 0  9993","SITE":"AFETR","MEAN_ANOMALY":"242.3078","MEAN_ELEMENT_THEORY":"SGP4","LAUNCH_DATE":"2021-11-13","OBJECT_NAME":"STARLINK-3138","GP_ID":"192946103","FILE":"3255249","CENTER_NAME":"EARTH","RCS_SIZE":"LARGE"},{"INCLINATION":"53.2174","MEAN_MOTION":"15.43001115","TLE_LINE2":"2 49431  53.2174 246.0193 0001604  50.3293 190.5178 15.43001115  3671","APOAPSIS":"438.353","CLASSIFICATION_TYPE":"U","COUNTRY_CODE":"US","ARG_OF_PERICENTER":"50.3293","REV_AT_EPOCH":"367","MEAN_MOTION_DDOT":"0.0000000000000","LAUNCH_DATE":"2021-11-13","MEAN_ANOMALY":"190.5178","MEAN_ELEMENT_THEORY":"SGP4","TLE_LINE1":"1 49431U 21104Z   22002.91667824 -.00659427  00000-0 -15823-1 0  9993","SITE":"AFETR","CENTER_NAME":"EARTH","RCS_SIZE":"LARGE","OBJECT_NAME":"STARLINK-3153","FILE":"3255249","GP_ID":"192946852","ELEMENT_SET_NO":"999","OBJECT_TYPE":"PAYLOAD","PERIAPSIS":"436.167","MEAN_MOTION_DOT":"-0.00659427","ECCENTRICITY":"0.00016040","BSTAR":"-0.01582300000000","OBJECT_ID":"2021-104Z","RA_OF_ASC_NODE":"246.0193","PERIOD":"93.325","SEMIMAJOR_AXIS":"6815.395","TIME_SYSTEM":"UTC","DECAY_DATE":null,"EPOCH":"2022-01-02T22:00:00.999936","EPHEMERIS_TYPE":"0","REF_FRAME":"TEME","NORAD_CAT_ID":"49431"},{"SITE":"AFETR","TLE_LINE1":"1 49432U 21104AA  22002.91667824 -.00662997  00000-0 -53680-2 0  9994","MEAN_ANOMALY":"346.1715","MEAN_ELEMENT_THEORY":"SGP4","LAUNCH_DATE":"2021-11-13","GP_ID":"192945102","FILE":"3255249","OBJECT_NAME":"STARLINK-3158","RCS_SIZE":"LARGE","CENTER_NAME":"EARTH","APOAPSIS":"354.409","TLE_LINE2":"2 49432  53.2176 243.6076 0001888  26.1917 346.1715 15.72016080  3692","INCLINATION":"53.2176","MEAN_MOTION":"15.72016080","MEAN_MOTION_DDOT":"0.0000000000000","REV_AT_EPOCH":"369","ARG_OF_PERICENTER":"26.1917","COUNTRY_CODE":"US","CLASSIFICATION_TYPE":"U","EPOCH":"2022-01-02T22:00:00.999936","DECAY_DATE":null,"TIME_SYSTEM":"UTC","PERIOD":"91.602","SEMIMAJOR_AXIS":"6731.273","RA_OF_ASC_NODE":"243.6076","OBJECT_ID":"2021-104AA","NORAD_CAT_ID":"49432","REF_FRAME":"TEME","EPHEMERIS_TYPE":"0","OBJECT_TYPE":"PAYLOAD","PERIAPSIS":"351.867","ELEMENT_SET_NO":"999","BSTAR":"-0.00536800000000","MEAN_MOTION_DOT":"-0.00662997","ECCENTRICITY":"0.00018880"},{"ELEMENT_SET_NO":"999","PERIAPSIS":"347.996","OBJECT_TYPE":"PAYLOAD","MEAN_MOTION_DOT":"-0.00022140","BSTAR":"-0.00015359000000","ECCENTRICITY":"0.00025490","TIME_SYSTEM":"UTC","RA_OF_ASC_NODE":"243.6870","PERIOD":"91.532","SEMIMAJOR_AXIS":"6727.846","OBJECT_ID":"2021-104AB","EPOCH":"2022-01-02T22:00:00.999936","DECAY_DATE":null,"NORAD_CAT_ID":"49433","REF_FRAME":"TEME","EPHEMERIS_TYPE":"0","MEAN_MOTION":"15.73217356","INCLINATION":"53.2154","APOAPSIS":"351.426","TLE_LINE2":"2 49433  53.2154 243.6870 0002549  33.1414 304.4694 15.73217356  3699","COUNTRY_CODE":"US","CLASSIFICATION_TYPE":"U","MEAN_MOTION_DDOT":"0.0000000000000","REV_AT_EPOCH":"369","ARG_OF_PERICENTER":"33.1414","MEAN_ELEMENT_THEORY":"SGP4","MEAN_ANOMALY":"304.4694","LAUNCH_DATE":"2021-11-13","SITE":"AFETR","TLE_LINE1":"1 49433U 21104AB  22002.91667824 -.00022140  00000-0 -15359-3 0  9997","RCS_SIZE":"LARGE","CENTER_NAME":"EARTH","GP_ID":"192945352","FILE":"3255249","OBJECT_NAME":"STARLINK-3079"},{"EPOCH":"2022-01-02T22:00:00.999936","DECAY_DATE":null,"TIME_SYSTEM":"UTC","PERIOD":"93.264","SEMIMAJOR_AXIS":"6812.421","RA_OF_ASC_NODE":"246.0200","OBJECT_ID":"2021-104AC","NORAD_CAT_ID":"49434","REF_FRAME":"TEME","EPHEMERIS_TYPE":"0","OBJECT_TYPE":"PAYLOAD","PERIAPSIS":"433.380","ELEMENT_SET_NO":"999","BSTAR":"-0.01533700000000","MEAN_MOTION_DOT":"-0.00653489","ECCENTRICITY":"0.00013310","SITE":"AFETR","TLE_LINE1":"1 49434U 21104AC  22002.91667824 -.00653489  00000-0 -15337-1 0  9998","MEAN_ELEMENT_THEORY":"SGP4","MEAN_ANOMALY":"255.0466","LAUNCH_DATE":"2021-11-13","FILE":"3255249","GP_ID":"192946604","OBJECT_NAME":"STARLINK-3134","RCS_SIZE":"LARGE","CENTER_NAME":"EARTH","APOAPSIS":"435.193","TLE_LINE2":"2 49434  53.2176 246.0200 0001331  61.0190 255.0466 15.44011416  3670","INCLINATION":"53.2176","MEAN_MOTION":"15.44011416","MEAN_MOTION_DDOT":"0.0000000000000","REV_AT_EPOCH":"367","ARG_OF_PERICENTER":"61.0190","COUNTRY_CODE":"US","CLASSIFICATION_TYPE":"U"},{"CLASSIFICATION_TYPE":"U","COUNTRY_CODE":"US","ARG_OF_PERICENTER":"44.4941","REV_AT_EPOCH":"369","MEAN_MOTION_DDOT":"0.0000000000000","INCLINATION":"53.2175","MEAN_MOTION":"15.70046967","TLE_LINE2":"2 49435  53.2175 243.6895 0001542  44.4941 277.5590 15.70046967  3693","APOAPSIS":"359.803","CENTER_NAME":"EARTH","RCS_SIZE":"LARGE","OBJECT_NAME":"STARLINK-3117","GP_ID":"192946353","FILE":"3255249","LAUNCH_DATE":"2021-11-13","MEAN_ELEMENT_THEORY":"SGP4","MEAN_ANOMALY":"277.5590","TLE_LINE1":"1 49435U 21104AD  22002.91667824 -.00319634  00000-0 -26979-2 0  9995","SITE":"AFETR","MEAN_MOTION_DOT":"-0.00319634","ECCENTRICITY":"0.00015420","BSTAR":"-0.00269790000000","ELEMENT_SET_NO":"999","PERIAPSIS":"357.726","OBJECT_TYPE":"PAYLOAD","EPHEMERIS_TYPE":"0","REF_FRAME":"TEME","NORAD_CAT_ID":"49435","OBJECT_ID":"2021-104AD","RA_OF_ASC_NODE":"243.6895","PERIOD":"91.717","SEMIMAJOR_AXIS":"6736.900","TIME_SYSTEM":"UTC","DECAY_DATE":null,"EPOCH":"2022-01-02T22:00:00.999936"},{"TLE_LINE1":"1 49436U 21104AE  22002.91667824 -.00030963  00000-0 -21692-3 0  9999","SITE":"AFETR","LAUNCH_DATE":"2021-11-13","MEAN_ELEMENT_THEORY":"SGP4","MEAN_ANOMALY":"308.5352","OBJECT_NAME":"STARLINK-3049","FILE":"3255249","GP_ID":"192945603","CENTER_NAME":"EARTH","RCS_SIZE":"LARGE","TLE_LINE2":"2 49436  53.2156 243.6901 0002064  28.2515 308.5352 15.73205728  3694","APOAPSIS":"351.132","MEAN_MOTION":"15.73205728","INCLINATION":"53.2156","ARG_OF_PERICENTER":"28.2515","REV_AT_EPOCH":"369","MEAN_MOTION_DDOT":"0.0000000000000","CLASSIFICATION_TYPE":"U","COUNTRY_CODE":"US","DECAY_DATE":null,"EPOCH":"2022-01-02T22:00:00.999936","OBJECT_ID":"2021-104AE","PERIOD":"91.533","SEMIMAJOR_AXIS":"6727.879","RA_OF_ASC_NODE":"243.6901","TIME_SYSTEM":"UTC","EPHEMERIS_TYPE":"0","REF_FRAME":"TEME","NORAD_CAT_ID":"49436","OBJECT_TYPE":"PAYLOAD","PERIAPSIS":"348.355","ELEMENT_SET_NO":"999","ECCENTRICITY":"0.00020640","MEAN_MOTION_DOT":"-0.00030963","BSTAR":"-0.00021692000000"},{"REV_AT_EPOCH":"369","ARG_OF_PERICENTER":"26.9730","MEAN_MOTION_DDOT":"0.0000000000000","CLASSIFICATION_TYPE":"U","COUNTRY_CODE":"US","TLE_LINE2":"2 49437  53.2153 243.6820 0002258  26.9730 312.6279 15.73192578  3693","APOAPSIS":"351.300","INCLINATION":"53.2153","MEAN_MOTION":"15.73192578","OBJECT_NAME":"STARLINK-3130","FILE":"3255249","GP_ID":"192945853","CENTER_NAME":"EARTH","RCS_SIZE":"LARGE","TLE_LINE1":"1 49437U 21104AF  22002.91667824  .00001102  00000-0  12281-4 0  9996","SITE":"AFETR","MEAN_ANOMALY":"312.6279","MEAN_ELEMENT_THEORY":"SGP4","LAUNCH_DATE":"2021-11-13","ECCENTRICITY":"0.00022580","MEAN_MOTION_DOT":"0.00001102","BSTAR":"0.00001228100000","OBJECT_TYPE":"PAYLOAD","PERIAPSIS":"348.262","ELEMENT_SET_NO":"999","EPHEMERIS_TYPE":"0","NORAD_CAT_ID":"49437","REF_FRAME":"TEME","DECAY_DATE":null,"EPOCH":"2022-01-02T22:00:00.999936","OBJECT_ID":"2021-104AF","TIME_SYSTEM":"UTC","PERIOD":"91.534","SEMIMAJOR_AXIS":"6727.916","RA_OF_ASC_NODE":"243.6820"},{"TIME_SYSTEM":"UTC","RA_OF_ASC_NODE":"243.6786","PERIOD":"91.533","SEMIMAJOR_AXIS":"6727.865","OBJECT_ID":"2021-104AG","EPOCH":"2022-01-02T22:00:00.999936","DECAY_DATE":null,"NORAD_CAT_ID":"49438","REF_FRAME":"TEME","EPHEMERIS_TYPE":"0","ELEMENT_SET_NO":"999","PERIAPSIS":"348.186","OBJECT_TYPE":"PAYLOAD","ECCENTRICITY":"0.00022950","MEAN_MOTION_DOT":"-0.00000590","BSTAR":"0.00000022947000","MEAN_ELEMENT_THEORY":"SGP4","MEAN_ANOMALY":"315.1006","LAUNCH_DATE":"2021-11-13","SITE":"AFETR","TLE_LINE1":"1 49438U 21104AG  22002.91667824 -.00000590  00000-0  22947-6 0  9990","RCS_SIZE":"LARGE","CENTER_NAME":"EARTH","FILE":"3255249","GP_ID":"192946104","OBJECT_NAME":"STARLINK-3044","MEAN_MOTION":"15.73210689","INCLINATION":"53.2151","APOAPSIS":"351.274","TLE_LINE2":"2 49438  53.2151 243.6786 0002295  25.3528 315.1006 15.73210689  3692","COUNTRY_CODE":"US","CLASSIFICATION_TYPE":"U","MEAN_MOTION_DDOT":"0.0000000000000","REV_AT_EPOCH":"369","ARG_OF_PERICENTER":"25.3528"}];
